NORAD_CAT_ID,OBJECT_NAME,OBJECT_TYPE,EPOCH,MEAN_MOTION,ECCENTRICITY,INCLINATION,RA_OF_ASC_NODE,ARG_OF_PERICENTER,MEAN_ANOMALY,BSTAR,MEAN_MOTION_DOT,MEAN_MOTION_DDOT,TLE_LINE0,TLE_LINE1,TLE_LINE2,SEMIMAJOR_AXIS,PERIOD,APOGEE,PERIGEE,DECAYED
53627.0,STARLINK-4595,PAYLOAD,2023-08-31 04:31:48,15.08844861,0.0001195,53.2177,50.616,86.4707,273.6422,7.9001e-05,9.7e-06,0.0,0 STARLINK-4595,1 53627U 22104AR  23243.18875307  .00000970  00000-0  79001-4 0  9992,2 53627  53.2177  50.6160 0001195  86.4707 273.6422 15.08844861 55951,6917.866,95.437,540.557,538.904,0.0
53627.0,STARLINK-4595,PAYLOAD,2023-08-31 14:04:07,15.08835934,0.0001447,53.2176,48.8315,85.09,275.0258,6.1919e-05,6.98e-06,0.0,0 STARLINK-4595,1 53627U 22104AR  23243.58620070  .00000698  00000-0  61919-4 0  9997,2 53627  53.2176  48.8315 0001447  85.0900 275.0258 15.08835934 56013,6917.893,95.438,540.759,538.757,0.0
53627.0,STARLINK-4595,PAYLOAD,2023-08-31 20:25:39,15.08844896,0.0001536,53.2174,47.6411,90.2378,269.879,2.4205e-05,9.7e-07,0.0,0 STARLINK-4595,1 53627U 22104AR  23243.85115608  .00000097  00000-0  24205-4 0  9993,2 53627  53.2174  47.6411 0001536  90.2378 269.8790 15.08844896 56740,6917.865,95.437,540.793,538.668,0.0
53627.0,STARLINK-4595,PAYLOAD,2023-09-01 10:44:08,15.08842144,0.0001411,53.2172,44.9667,83.7927,276.3226,4.486e-05,4.26e-06,0.0,0 STARLINK-4595,1 53627U 22104AR  23244.44731706  .00000426  00000-0  44860-4 0  9997,2 53627  53.2172  44.9667 0001411  83.7927 276.3226 15.08842144 56831,6917.874,95.437,540.715,538.763,0.0
53627.0,STARLINK-4595,PAYLOAD,2023-09-01 17:05:40,15.08843915,0.0001186,53.218,43.7774,87.3243,272.7885,5.656e-05,6.13e-06,0.0,0 STARLINK-4595,1 53627U 22104AR  23244.71227463  .00000613  00000-0  56560-4 0  9995,2 53627  53.2180  43.7774 0001186  87.3243 272.7885 15.08843915 56878,6917.868,95.437,540.554,538.913,0.0
53627.0,STARLINK-4595,PAYLOAD,2023-09-02 04:13:22,15.08826923,0.0001175,53.2178,41.697,83.9234,276.1892,0.00032217,4.841e-05,0.0,0 STARLINK-4595,1 53627U 22104AR  23245.17595512  .00004841  00000-0  32217-3 0  9998,2 53627  53.2178  41.6970 0001175  83.9234 276.1892 15.08826923 56258,6917.92,95.438,540.598,538.973,0.0
53627.0,STARLINK-4595,PAYLOAD,2023-09-02 16:56:27,15.0883839,0.0001532,53.2181,39.3144,96.0389,264.0777,6.0038e-05,6.68e-06,0.0,0 STARLINK-4595,1 53627U 22104AR  23245.70587821  .00000668  00000-0  60038-4 0  9997,2 53627  53.2181  39.3144 0001532  96.0389 264.0777 15.08838390 57027,6917.885,95.438,540.81,538.69,0.0
53627.0,STARLINK-4595,PAYLOAD,2023-09-03 05:39:32,15.08841926,0.0001383,53.2182,36.936,100.4202,259.6946,0.00010153,1.328e-05,0.0,0 STARLINK-4595,1 53627U 22104AR  23246.23579466  .00001328  00000-0  10153-3 0  9998,2 53627  53.2182  36.9360 0001383 100.4202 259.6946 15.08841926 56418,6917.875,95.437,540.696,538.783,0.0
53627.0,STARLINK-4595,PAYLOAD,2023-09-03 12:01:05,15.08829703,0.0001364,53.2183,35.747,99.8996,260.215,0.00022009,3.216e-05,0.0,0 STARLINK-4595,1 53627U 22104AR  23246.50075933  .00003216  00000-0  22009-3 0  9999,2 53627  53.2183  35.7470 0001364  99.8996 260.2150 15.08829703 57143,6917.912,95.438,540.72,538.833,0.0
53627.0,STARLINK-4595,PAYLOAD,2023-09-04 10:16:29,15.08830308,0.0001229,53.2189,31.5854,88.068,272.0453,4.317e-05,3.99e-06,0.0,0 STARLINK-4595,1 53627U 22104AR  23247.42812445  .00000399  00000-0  43170-4 0  9990,2 53627  53.2189  31.5854 0001229  88.0680 272.0453 15.08830308 56597,6917.91,95.438,540.625,538.925,0.0
53627.0,STARLINK-4595,PAYLOAD,2023-09-05 11:42:40,15.08831894,0.0001401,53.2184,26.8283,85.6279,274.4874,7.1799e-06,-1.74e-06,0.0,0 STARLINK-4595,1 53627U 22104AR  23248.48796797 -.00000174  00000-0  71799-5 0  9999,2 53627  53.2184  26.8283 0001401  85.6279 274.4874 15.08831894 57443,6917.905,95.438,540.739,538.801,0.0
53627.0,STARLINK-4595,PAYLOAD,2023-09-05 16:28:49,15.08834869,0.0001463,53.218,25.9372,83.595,276.5209,4.5605e-05,4.38e-06,0.0,0 STARLINK-4595,1 53627U 22104AR  23248.68668609  .00000438  00000-0  45605-4 0  9999,2 53627  53.2180  25.9372 0001463  83.5950 276.5209 15.08834869 56785,6917.896,95.438,540.773,538.749,0.0
53627.0,STARLINK-4595,PAYLOAD,2023-09-06 11:33:27,15.08836943,0.000128,53.2181,22.3685,99.8837,260.23,8.0651e-05,9.96e-06,0.0,0 STARLINK-4595,1 53627U 22104AR  23249.48156540  .00000996  00000-0  80651-4 0  9993,2 53627  53.2181  22.3685 0001280  99.8837 260.2300 15.08836943 57592,6917.89,95.438,540.64,538.869,0.0
53627.0,STARLINK-4595,PAYLOAD,2023-09-07 01:51:54,15.08845172,0.0001316,53.2196,19.6911,86.3888,273.7254,0.00013337,1.836e-05,0.0,0 STARLINK-4595,1 53627U 22104AR  23250.07771971  .00001836  00000-0  13337-3 0  9991,2 53627  53.2196  19.6911 0001316  86.3888 273.7254 15.08845172 56990,6917.865,95.437,540.64,538.819,0.0
53627.0,STARLINK-4595,PAYLOAD,2023-09-07 11:24:14,15.08833934,0.0001414,53.2187,17.9071,85.6562,274.4592,6.043e-05,6.74e-06,0.0,0 STARLINK-4595,1 53627U 22104AR  23250.47516954  .00000674  00000-0  60430-4 0  9999,2 53627  53.2187  17.9071 0001414  85.6562 274.4592 15.08833934 57748,6917.899,95.438,540.742,538.786,0.0
53627.0,STARLINK-4595,PAYLOAD,2023-09-07 17:45:46,15.08845505,0.0001415,53.2188,16.7172,86.568,273.5474,8.2253e-05,1.022e-05,0.0,0 STARLINK-4595,1 53627U 22104AR  23250.74012190  .00001022  00000-0  82253-4 0  9997,2 53627  53.2188  16.7172 0001415  86.5680 273.5474 15.08845505 57780,6917.864,95.437,540.707,538.75,0.0
53627.0,STARLINK-4595,PAYLOAD,2023-09-08 01:42:42,15.08840164,0.0001098,53.2196,15.231,87.1068,273.005,4.8103e-05,4.78e-06,0.0,0 STARLINK-4595,1 53627U 22104AR  23251.07132479  .00000478  00000-0  48103-4 0  9997,2 53627  53.2196  15.2310 0001098  87.1068 273.0050 15.08840164 57142,6917.88,95.438,540.504,538.985,0.0
53627.0,STARLINK-4595,PAYLOAD,2023-09-08 12:50:24,15.08838544,0.0001345,53.2195,13.1485,87.1621,272.9525,3.4886e-05,2.67e-06,0.0,0 STARLINK-4595,1 53627U 22104AR  23251.53500743  .00000267  00000-0  34886-4 0  9990,2 53627  53.2195  13.1485 0001345  87.1621 272.9525 15.08838544 57909,6917.885,95.438,540.68,538.819,0.0
53627.0,STARLINK-4595,PAYLOAD,2023-09-08 17:36:33,15.08846822,0.0001468,53.2192,12.2563,85.3197,274.7963,5.7999e-05,6.35e-06,0.0,0 STARLINK-4595,1 53627U 22104AR  23251.73372145  .00000635  00000-0  57999-4 0  9994,2 53627  53.2192  12.2563 0001468  85.3197 274.7963 15.08846822 57934,6917.86,95.437,540.74,538.709,0.0
53627.0,STARLINK-4595,PAYLOAD,2023-09-09 09:30:25,15.08835807,0.0001396,53.2189,9.2836,87.3824,272.7328,4.8866e-05,4.9e-06,0.0,0 STARLINK-4595,1 53627U 22104AR  23252.39612782  .00000490  00000-0  48866-4 0  9993,2 53627  53.2189   9.2836 0001396  87.3824 272.7328 15.08835807 57347,6917.893,95.438,540.724,538.792,0.0
53627.0,STARLINK-4595,PAYLOAD,2023-09-09 14:16:34,15.0884071,0.0001253,53.2194,8.392,86.1705,273.943,8.927e-05,1.133e-05,0.0,0 STARLINK-4595,1 53627U 22104AR  23252.59484392  .00001133  00000-0  89270-4 0  9998,2 53627  53.2194   8.3920 0001253  86.1705 273.9430 15.08840710 58060,6917.878,95.438,540.61,538.876,0.0
53627.0,STARLINK-4595,PAYLOAD,2023-09-10 14:07:21,15.08846291,0.0001275,53.2193,3.9321,83.6627,276.451,4.6097e-05,4.46e-06,0.0,0 STARLINK-4595,1 53627U 22104AR  23253.58844202  .00000446  00000-0  46097-4 0  9994,2 53627  53.2193   3.9321 0001275  83.6627 276.4510 15.08846291 58218,6917.861,95.437,540.608,538.844,0.0
53627.0,STARLINK-4595,PAYLOAD,2023-09-11 10:47:22,15.08835317,0.000127,53.2193,0.0673,84.9093,275.2044,4.7491e-05,4.68e-06,0.0,0 STARLINK-4595,1 53627U 22104AR  23254.44956979  .00000468  00000-0  47491-4 0  9998,2 53627  53.2193   0.0673 0001270  84.9093 275.2044 15.08835317 57655,6917.895,95.438,540.638,538.881,0.0
53627.0,STARLINK-4595,PAYLOAD,2023-09-11 12:22:45,15.08836242,0.0001268,53.2194,359.7701,83.6166,276.4971,5.2944e-05,5.55e-06,0.0,0 STARLINK-4595,1 53627U 22104AR  23254.51580920  .00000555  00000-0  52944-4 0  9991,2 53627  53.2194 359.7701 0001268  83.6166 276.4971 15.08836242 58354,6917.892,95.438,540.634,538.88,0.0
53627.0,STARLINK-4595,PAYLOAD,2023-09-12 13:48:55,15.08841129,0.0001206,53.2193,355.0115,85.606,274.507,0.00026413,3.918e-05,0.0,0 STARLINK-4595,1 53627U 22104AR  23255.57564100  .00003918  00000-0  26413-3 0  9997,2 53627  53.2193 355.0115 0001206  85.6060 274.5070 15.08841129 58515,6917.877,95.437,540.576,538.908,0.0
53627.0,STARLINK-4595,PAYLOAD,2023-09-12 16:59:41,15.08853612,0.0001247,53.2192,354.4161,92.5706,267.5429,0.00013507,1.863e-05,0.0,0 STARLINK-4595,1 53627U 22104AR  23255.70811470  .00001863  00000-0  13507-3 0  9994,2 53627  53.2192 354.4161 0001247  92.5706 267.5429 15.08853612 57842,6917.839,95.437,540.566,538.841,0.0
53627.0,STARLINK-4595,PAYLOAD,2023-09-13 10:28:55,15.08847183,0.0001281,53.2189,351.1397,99.7133,260.4003,9.4207e-05,1.212e-05,0.0,0 STARLINK-4595,1 53627U 22104AR  23256.43675916  .00001212  00000-0  94207-4 0  9993,2 53627  53.2189 351.1397 0001281  99.7133 260.4003 15.08847183 57952,6917.858,95.437,540.61,538.837,0.0
53627.0,STARLINK-4595,PAYLOAD,2023-09-13 12:04:18,15.08848733,0.0001331,53.2195,350.8429,103.9721,256.1419,0.00010649,1.408e-05,0.0,0 STARLINK-4595,1 53627U 22104AR  23256.50299734  .00001408  00000-0  10649-3 0  9995,2 53627  53.2195 350.8429 0001331 103.9721 256.1419 15.08848733 58651,6917.854,95.437,540.639,538.798,0.0
53627.0,STARLINK-4595,PAYLOAD,2023-09-14 10:19:44,15.08828483,0.0001634,53.2189,346.6842,124.946,235.1686,-6.4076e-05,-1.307e-05,0.0,0 STARLINK-4595,1 53627U 22104AR  23257.43037884 -.00001307  00000-0 -64076-4 0  9998,2 53627  53.2189 346.6842 0001634 124.9460 235.1686 15.08828483 58108,6917.916,95.438,540.911,538.65,0.0
53627.0,STARLINK-4595,PAYLOAD,2023-09-14 13:30:31,15.08823357,0.0001147,53.2187,346.0906,103.7301,256.3819,-9.9298e-05,-1.867e-05,0.0,0 STARLINK-4595,1 53627U 22104AR  23257.56286557 -.00001867  00000-0 -99298-4 0  9990,2 53627  53.2187 346.0906 0001147 103.7301 256.3819 15.08823357 58815,6917.931,95.439,540.59,539.003,0.0
